BEIDOU-2 IGSO-1 (C06)   
1 36828U 10036A   26086.63883915 -.00000150  00000+0  00000+0 0  9997
2 36828  54.2909 163.6978 0057461 222.7538 133.1758  1.00295665 57273
BEIDOU-2 G4 (C04)       
1 37210U 10057A   26109.46664209 -.00000109  00000+0  00000+0 0  9990
2 37210   3.5006  69.2661 0006750 213.0002 253.2652  1.00270206 56706
BEIDOU-2 IGSO-2 (C07)   
1 37256U 10068A   26109.38456845 -.00000205  00000+0  00000+0 0  9995
2 37256  47.6585 272.5592 0053088 211.5795 325.7854  1.00302245 56200
BEIDOU-2 IGSO-3 (C08)   
1 37384U 11013A   26108.74334260 -.00000199  00000+0  00000+0 0  9995
2 37384  62.3316  40.7151 0033959 188.0452 353.7059  1.00282086 55068
BEIDOU-2 IGSO-4 (C09)   
1 37763U 11038A   26107.64052725  .00000018  00000+0  00000+0 0  9993
2 37763  54.5877 166.2267 0158140 231.6577 130.9427  1.00257144 54047
BEIDOU-2 IGSO-5 (C10)   
1 37948U 11073A   26108.92524979 -.00000156  00000+0  00000+0 0  9998
2 37948  47.7891 272.2749 0110416 220.5077 141.2983  1.00261430 52549
BEIDOU-2 G5 (C05)       
1 38091U 12008A   26109.51812231  .00000060  00000+0  00000+0 0  9997
2 38091   3.4268  70.0202 0012394 264.7647 118.0949  1.00270782 51782
BEIDOU-2 M3 (C11)       
1 38250U 12018A   26109.12334515 -.00000036  00000+0  00000+0 0  9990
2 38250  55.8087 306.8660 0019913 278.6158  81.1680  1.86229959 94842
BEIDOU-2 M4 (C12)       
1 38251U 12018B   26109.05555731 -.00000035  00000+0  00000+0 0  9997
2 38251  55.7089 306.0869 0011131 284.6961  75.1889  1.86229595 94840
BEIDOU-2 M6 (C14)       
1 38775U 12050B   26109.30243583 -.00000020  00000+0  00000+0 0  9995
2 38775  56.4953  64.8403 0014496 347.5966  12.3346  1.86230788 92219
BEIDOU-2 G6 (C02)       
1 38953U 12059A   26109.52314899 -.00000171  00000+0  00000+0 0  9992
2 38953   4.2723  74.1287 0010680 314.9823  90.8178  1.00268298 49329
BEIDOU-3S IGSO-1S (C31) 
1 40549U 15019A   26105.63855123 -.00000161  00000+0  00000+0 0  9992
2 40549  49.3136 296.2132 0036841 190.1679  42.8253  1.00264313 40446
BEIDOU-3S M2S (C58)     
1 40748U 15037A   26109.25887955 -.00000036  00000+0  00000+0 0  9994
2 40748  54.9234 304.0751 0007575 273.2229  86.6941  1.86232057 73023
BEIDOU-3S M1S (C57)     
1 40749U 15037B   26107.86285712 -.00000032  00000+0  00000+0 0  9999
2 40749  54.9216 304.1104 0004541  48.9078 311.1413  1.86254750 73008
BEIDOU-3S IGSO-2S (C56) 
1 40938U 15053A   26109.38283510 -.00000156  00000+0  00000+0 0  9997
2 40938  49.3161 259.4790 0063500 189.9103 352.7752  1.00273188 38766
BEIDOU-2 IGSO-6 (C13)   
1 41434U 16021A   26106.78983741 -.00000168  00000+0  00000+0 0  9992
2 41434  60.1459  38.6513 0058047 233.1663 312.8592  1.00269972 36866
BEIDOU-2 G7 (C03)       
1 41586U 16037A   26109.52834902 -.00000350  00000+0  00000+0 0  9999
2 41586   1.5741  68.7117 0007547 353.2878  86.3908  1.00269016  6301
BEIDOU-3 M1 (C19)       
1 43001U 17069A   26109.06783681 -.00000019  00000+0  00000+0 0  9997
2 43001  56.6431  65.0309 0012309 316.6739  43.1961  1.86231175 57503
BEIDOU-3 M2 (C20)       
1 43002U 17069B   26109.00643388 -.00000019  00000+0  00000+0 0  9991
2 43002  56.6423  65.0688 0010067 336.8439  23.0774  1.86230714 57490
BEIDOU-3 M7 (C27)       
1 43107U 18003A   26106.06318399 -.00000027  00000+0  00000+0 0  9999
2 43107  54.3864 304.4805 0005274  84.2600 275.8191  1.86227938 56199
BEIDOU-3 M8 (C28)       
1 43108U 18003B   26108.15670832 -.00000035  00000+0  00000+0 0  9994
2 43108  54.3743 304.3904 0002313 289.9909  69.9926  1.86231108 56240
BEIDOU-3 M4 (C22)       
1 43207U 18018A   26109.13611572 -.00000019  00000+0  00000+0 0  9997
2 43207  56.6025  65.0946 0007773   0.7833 359.1846  1.86230760 55646
BEIDOU-3 M3 (C21)       
1 43208U 18018B   26109.20256231 -.00000019  00000+0  00000+0 0  9993
2 43208  56.6018  65.0963 0010023 328.8014  31.1060  1.86230923 55641
BEIDOU-3 M9 (C29)       
1 43245U 18029A   26109.42009639 -.00000035  00000+0  00000+0 0  9996
2 43245  54.2479 302.0034 0000893  76.5665 283.4429  1.86228107 54802
BEIDOU-3 M10 (C30)      
1 43246U 18029B   26109.35475212 -.00000035  00000+0  00000+0 0  9993
2 43246  54.2457 302.0330 0004947  33.0657 326.9650  1.86229191 54781
BEIDOU-2 IGSO-7 (C16)   
1 43539U 18057A   26098.60612922 -.00000109  00000+0  00000+0 0  9997
2 43539  55.1848 163.6675 0102136 237.2229 127.1361  1.00273248 28436
BEIDOU-3 M5 (C23)       
1 43581U 18062A   26105.28332273  .00000040  00000+0  00000+0 0  9994
2 43581  54.0838 184.4435 0003842 288.9712  71.0457  1.86228596 52462
BEIDOU-3 M6 (C24)       
1 43582U 18062B   26108.36824961  .00000053  00000+0  00000+0 0  9991
2 43582  54.0837 184.3277 0004965  27.6686 332.4327  1.86227506 52527
BEIDOU-3 M12 (C26)      
1 43602U 18067A   26109.38056515  .00000047  00000+0  00000+0 0  9997
2 43602  54.1790 183.0349 0007974  35.6907 324.4401  1.86227937 52020
BEIDOU-3 M11 (C25)      
1 43603U 18067B   26108.44153212  .00000055  00000+0  00000+0 0  9995
2 43603  54.1762 183.0305 0004503  24.0779 336.0202  1.86227403 52033
BEIDOU-3 M13 (C32)      
1 43622U 18072A   26108.93371258 -.00000020  00000+0  00000+0 0  9991
2 43622  56.5751  64.6141 0008884 316.8439  43.0533  1.86231261 51556
BEIDOU-3 M14 (C33)      
1 43623U 18072B   26106.65134443 -.00000011  00000+0  00000+0 0  9992
2 43623  56.5747  64.6834 0006829 338.6771  21.2649  1.86231311 51506
BEIDOU-3 M16 (C35)      
1 43647U 18078A   26108.95542802 -.00000035  00000+0  00000+0 0  9997
2 43647  54.1447 302.0616 0008232  37.5564 322.5021  1.86232194 51056
BEIDOU-3 M15 (C34)      
1 43648U 18078B   26105.86305976 -.00000025  00000+0  00000+0 0  9993
2 43648  54.1430 302.1715 0005314  46.8263 313.2338  1.86232479 51017
BEIDOU-3 G1 (C59)       
1 43683U 18085A   26109.53532034 -.00000105  00000+0  00000+0 0  9994
2 43683   2.9250  98.9667 0007206 331.9401 129.5374  1.00265514 27470
BEIDOU-3 M17 (C36)      
1 43706U 18093A   26109.31544227  .00000047  00000+0  00000+0 0  9996
2 43706  54.1671 184.2941 0008761 291.4255 115.6270  1.86228285 50442
BEIDOU-3 M18 (C37)      
1 43707U 18093B   26109.10806050  .00000049  00000+0  00000+0 0  9991
2 43707  54.1682 184.2934 0006748 326.4076  33.6256  1.86226336 50437
BEIDOU-3 IGSO-1 (C38)   
1 44204U 19023A   26107.70564958 -.00000228  00000+0  00000+0 0  9990
2 44204  58.6152  38.2742 0024423 235.9260 302.9294  1.00257385  6603
BEIDOU-2 G8 (C01)       
1 44231U 19027A   26109.57011050 -.00000244  00000+0  00000+0 0  9999
2 44231   1.5086  74.3356 0011102 278.0606 205.0820  1.00270232 25492
BEIDOU-3 IGSO-2 (C39)   
1 44337U 19035A   26109.53025569 -.00000081  00000+0  00000+0 0  9990
2 44337  55.2346 159.3788 0039513 214.6788 143.7280  1.00284920 25071
BEIDOU-3 M24 (C46)      
1 44542U 19061A   26109.17745490  .00000048  00000+0  00000+0 0  9991
2 44542  54.3948 184.7183 0008052  10.3782 349.7138  1.86229164 44699
BEIDOU-3 M23 (C45)      
1 44543U 19061B   26109.41393238  .00000046  00000+0  00000+0 0  9996
2 44543  54.3934 184.6790 0004837 351.7402  78.8567  1.86227217 44701
BEIDOU-3 IGSO-3 (C40)   
1 44709U 19073A   26108.88094229 -.00000194  00000+0  00000+0 0  9996
2 44709  54.9038 281.5355 0041835 188.7222 171.1188  1.00254997 23868
BEIDOU-3 M22 (C44)      
1 44793U 19078A   26108.47952023 -.00000034  00000+0  00000+0 0  9997
2 44793  53.9907 301.9284 0007428  44.3721 315.6900  1.86227289 43535
BEIDOU-3 M21 (C43)      
1 44794U 19078B   26109.15655575 -.00000035  00000+0  00000+0 0  9997
2 44794  53.9634 301.8669 0005228  41.2029 318.8365  1.86227801 43554
BEIDOU-3 M19 (C41)      
1 44864U 19090A   26108.37368984 -.00000018  00000+0  00000+0 0  9998
2 44864  56.5092  64.7667 0019895 295.4391  96.5795  1.86231172 43128
BEIDOU-3 M20 (C42)      
1 44865U 19090B   26109.47323968 -.00000020  00000+0  00000+0 0  9997
2 44865  56.5115  64.7649 0017527 307.7126 191.1006  1.86231286 43121
BEIDOU-3 G2 (C60)       
1 45344U 20017A   26109.52228234 -.00000138  00000+0  00000+0 0  9997
2 45344   2.7459  46.3746 0002422 345.1867  84.1284  1.00272039 22671
BEIDOU-3 G3 (C61)       
1 45807U 20040A   26109.52834902 -.00000351  00000+0  00000+0 0  9999
2 45807   2.3023  67.2545 0003663 327.9728 113.1373  1.00274155 21480
BEIDOU-3 G4 (C62)       
1 56564U 23066A   26109.53424236 -.00000279  00000+0  00000+0 0  9997
2 56564   0.5698 318.5204 0002485 165.6354  55.8492  1.00274548 10801
BEIDOU-3 M28 (C50)      
1 58654U 23207A   26109.23380515 -.00000022  00000+0  00000+0 0  9990
2 58654  55.7031  64.2908 0004730 320.0859  39.8468  1.86229594 15742
BEIDOU-3 M26 (C48)      
1 58655U 23207B   26109.03129814 -.00000022  00000+0  00000+0 0  9992
2 58655  55.7047  64.2843 0005175 302.3913  57.5260  1.86229561 15725
BEIDOU-3 M25 (C47)      
1 61186U 24168B   26109.15060376 -.00000037  00000+0  00000+0 0  9998
2 61186  54.5265 304.2932 0003400 319.0049 238.0578  1.86229819 10681
BEIDOU-3 M27 (C49)      
1 61187U 24168C   26109.45797541 -.00000037  00000+0  00000+0 0  9993
2 61187  54.5220 304.2655 0002607  37.6520 140.4970  1.86229921  8166
